{
  "type": "FeatureCollection",
  "name": "inland_waterways_bulk_freight",
  "metadata": {
    "description": "Hand-encoded major inland-waterway systems that move bulk freight. Coverage is intentionally curated rather than exhaustive — secondary basins are excluded. Class assignments translate native country classifications onto the CEMT scale for cost/CO2 lookup. Tonnage is the practical maximum loaded barge or convoy on the segment, not the structural lock maximum.",
    "class_reference": {
      "CEMT_I":    "<250 t small barge",
      "CEMT_II":   "400-650 t",
      "CEMT_III":  "650-1000 t (Spitz)",
      "CEMT_IV":   "1000-1500 t (Rhine-Herne)",
      "CEMT_Va":   "1500-3000 t",
      "CEMT_Vb":   "3200-6000 t (push convoy)",
      "CEMT_VIa":  "~6000 t",
      "CEMT_VIb":  "~12000 t",
      "CEMT_VIc":  "~18000 t",
      "CEMT_VII":  "27000+ t"
    },
    "primary_sources": [
      "PIANC Working Group 156 (inland navigation classifications and emissions)",
      "USACE Waterborne Commerce Statistics Center",
      "USACE Inland Waterway Navigation: Value to the Nation 2022",
      "CCNR Annual Report on Inland Navigation in Europe",
      "Donaucommission (Danube)",
      "Yangtze River Administration of Navigational Affairs",
      "Russian UVVP class table (rosmorrechflot.ru)",
      "Hidrovía Paraguay-Paraná (CIH)",
      "Inland Waterways Authority of India NW1/NW2"
    ]
  },
  "features": [
    {"type":"Feature","properties":{"system_id":"miss_main_lower","name":"Mississippi River (St Louis to Mouth)","country":"US","cemt_class":"VIc","max_barge_tonnage":22500,"native_class":"USACE 9-Foot Channel Project main stem","notes":"Lock-and-dam free below St Louis; 15-barge tows. Geometry traces major bends through Cape Girardeau / Memphis / Helena / Greenville / Vicksburg / Natchez / Baton Rouge / NOLA."},
      "geometry":{"type":"LineString","coordinates":[[-90.20,38.63],[-90.07,38.20],[-89.66,37.97],[-89.51,37.30],[-89.18,37.00],[-89.20,36.57],[-89.53,36.59],[-89.65,36.10],[-89.95,35.71],[-90.05,35.15],[-90.30,34.82],[-90.59,34.55],[-91.00,34.10],[-91.05,33.41],[-91.05,32.93],[-90.88,32.35],[-91.18,31.86],[-91.36,31.56],[-91.59,31.16],[-91.50,30.81],[-91.15,30.45],[-91.24,30.29],[-90.99,30.10],[-90.62,30.04],[-90.20,29.95],[-89.62,29.93],[-89.45,29.50],[-89.25,29.15]]}},
    {"type":"Feature","properties":{"system_id":"miss_main_upper","name":"Mississippi River (Minneapolis to St Louis)","country":"US","cemt_class":"VIb","max_barge_tonnage":13500,"native_class":"USACE 9-Foot Channel Project upper","notes":"27-lock UMR system; 9-barge tow max."},
      "geometry":{"type":"LineString","coordinates":[[-93.27,44.98],[-92.62,44.27],[-91.50,43.50],[-91.20,42.50],[-90.57,41.52],[-91.05,40.58],[-91.20,39.95],[-90.43,38.97],[-90.20,38.63]]}},
    {"type":"Feature","properties":{"system_id":"ohio","name":"Ohio River","country":"US","cemt_class":"VIb","max_barge_tonnage":13500,"native_class":"USACE Ohio River Project","notes":"Pittsburgh to Cairo confluence with Mississippi; coal-dominant. Traces real bends through Wheeling / Marietta / Huntington / Cincinnati / Louisville / Evansville / Paducah."},
      "geometry":{"type":"LineString","coordinates":[[-80.00,40.44],[-80.72,40.10],[-80.85,39.45],[-81.45,39.42],[-81.55,39.12],[-82.20,38.78],[-82.42,38.50],[-82.97,38.51],[-83.50,38.62],[-84.10,38.78],[-84.50,39.10],[-85.18,38.74],[-85.76,38.25],[-86.50,38.04],[-87.55,37.95],[-87.95,37.95],[-88.40,37.85],[-88.90,37.45],[-89.18,37.00]]}},
    {"type":"Feature","properties":{"system_id":"illinois","name":"Illinois Waterway","country":"US","cemt_class":"VIa","max_barge_tonnage":9000,"native_class":"USACE Illinois Waterway 9-Foot","notes":"Chicago to Mississippi confluence at Grafton; eight locks."},
      "geometry":{"type":"LineString","coordinates":[[-87.65,41.85],[-88.20,41.55],[-89.00,41.20],[-89.59,40.69],[-90.27,39.93],[-90.43,38.97]]}},
    {"type":"Feature","properties":{"system_id":"tennessee","name":"Tennessee River","country":"US","cemt_class":"Vb","max_barge_tonnage":4500,"native_class":"USACE Tennessee River 9-Foot","notes":"Knoxville to Paducah confluence with Ohio; TVA locks."},
      "geometry":{"type":"LineString","coordinates":[[-83.92,35.96],[-84.50,35.50],[-85.31,35.04],[-86.78,34.74],[-87.55,34.97],[-87.55,35.85],[-88.05,36.20],[-88.30,36.95],[-88.60,37.08]]}},
    {"type":"Feature","properties":{"system_id":"cumberland","name":"Cumberland River","country":"US","cemt_class":"Va","max_barge_tonnage":3000,"native_class":"USACE Cumberland River 9-Foot","notes":"Nashville to Smithland confluence with Ohio."},
      "geometry":{"type":"LineString","coordinates":[[-86.78,36.16],[-87.45,36.30],[-88.05,36.90],[-88.40,37.13]]}},
    {"type":"Feature","properties":{"system_id":"gulf_intracoastal_west","name":"Gulf Intracoastal Waterway (West)","country":"US","cemt_class":"VIa","max_barge_tonnage":7500,"native_class":"USACE GIWW","notes":"Brownsville to NOLA; bulk and chemical."},
      "geometry":{"type":"LineString","coordinates":[[-97.40,26.07],[-95.27,28.95],[-94.10,29.70],[-93.30,29.77],[-91.83,29.69],[-90.10,29.63],[-89.62,29.93]]}},
    {"type":"Feature","properties":{"system_id":"st_lawrence_seaway","name":"St Lawrence Seaway","country":"CA","cemt_class":"VIb","max_barge_tonnage":28000,"native_class":"Seaway-max vessel 225m x 23.8m","notes":"Lake Ontario to Gulf of St Lawrence; iron ore, grain."},
      "geometry":{"type":"LineString","coordinates":[[-79.20,43.65],[-77.90,44.10],[-76.13,44.23],[-74.74,45.00],[-73.55,45.50],[-72.55,46.35],[-71.21,46.81],[-69.72,48.13],[-67.00,49.00]]}},
    {"type":"Feature","properties":{"system_id":"great_lakes_main","name":"Great Lakes (Duluth to Buffalo)","country":"US","cemt_class":"VII","max_barge_tonnage":70000,"native_class":"1000-foot laker","notes":"Duluth-Sault-Detroit-Cleveland-Buffalo; iron ore, coal, limestone, grain."},
      "geometry":{"type":"LineString","coordinates":[[-92.10,46.78],[-87.07,46.50],[-84.34,46.50],[-84.73,45.85],[-82.50,44.50],[-83.05,42.33],[-82.50,41.80],[-81.69,41.50],[-80.40,42.30],[-78.88,42.89]]}},
    {"type":"Feature","properties":{"system_id":"welland_canal","name":"Welland Canal","country":"CA","cemt_class":"VIb","max_barge_tonnage":28000,"native_class":"Seaway-max","notes":"Lake Erie to Lake Ontario bypass of Niagara."},
      "geometry":{"type":"LineString","coordinates":[[-79.21,42.88],[-79.20,43.16],[-79.20,43.65]]}},
    {"type":"Feature","properties":{"system_id":"rhine_main","name":"Rhine (Rotterdam to Basel)","country":"DE","cemt_class":"VIb","max_barge_tonnage":12000,"native_class":"CEMT VIb","notes":"Europe's largest inland freight artery; iron ore, coal, ag, container. Trace passes Nijmegen, Wesel, Duisburg, Düsseldorf, Köln, Bonn, Koblenz, Bingen, Mainz, Worms, Mannheim, Karlsruhe, Strasbourg."},
      "geometry":{"type":"LineString","coordinates":[[4.40,51.92],[4.80,51.95],[5.85,51.84],[6.13,51.83],[6.62,51.65],[6.78,51.46],[6.78,51.27],[6.95,51.10],[6.96,50.94],[7.10,50.74],[7.10,50.55],[7.59,50.36],[7.95,50.00],[8.00,49.65],[8.27,50.00],[8.27,49.62],[8.46,49.49],[8.40,49.01],[8.20,48.85],[8.06,48.65],[7.75,48.58],[7.62,48.05],[7.59,47.56]]}},
    {"type":"Feature","properties":{"system_id":"main","name":"Main River","country":"DE","cemt_class":"Vb","max_barge_tonnage":3500,"native_class":"CEMT Vb","notes":"Mainz to Bamberg; canalised."},
      "geometry":{"type":"LineString","coordinates":[[8.27,50.00],[8.68,50.11],[9.93,49.79],[10.89,49.89]]}},
    {"type":"Feature","properties":{"system_id":"main_danube_canal","name":"Main-Danube Canal","country":"DE","cemt_class":"Vb","max_barge_tonnage":3300,"native_class":"CEMT Vb","notes":"Bamberg to Kelheim; transcontinental Rhine-Danube link."},
      "geometry":{"type":"LineString","coordinates":[[10.89,49.89],[11.08,49.45],[11.87,48.92]]}},
    {"type":"Feature","properties":{"system_id":"danube_upper","name":"Danube (Kelheim to Budapest)","country":"DE","cemt_class":"VIa","max_barge_tonnage":6000,"native_class":"Donaucommission VIa","notes":"German-Austrian-Slovak-Hungarian section."},
      "geometry":{"type":"LineString","coordinates":[[11.87,48.92],[12.10,49.02],[13.45,48.57],[14.30,48.31],[16.37,48.21],[17.10,48.15],[19.05,47.50]]}},
    {"type":"Feature","properties":{"system_id":"danube_lower","name":"Danube (Budapest to Sulina)","country":"RO","cemt_class":"VIc","max_barge_tonnage":16000,"native_class":"Donaucommission VIc","notes":"Iron Gates lock allows large convoys; Romania, Bulgaria, Serbia."},
      "geometry":{"type":"LineString","coordinates":[[19.05,47.50],[20.46,44.82],[22.50,44.65],[24.97,43.86],[27.95,43.71],[28.04,45.43],[29.65,45.16]]}},
    {"type":"Feature","properties":{"system_id":"rhone","name":"Rhône","country":"FR","cemt_class":"Vb","max_barge_tonnage":4500,"native_class":"CEMT Vb","notes":"Lyon to Mediterranean; bulk and container."},
      "geometry":{"type":"LineString","coordinates":[[4.83,45.76],[4.81,43.95],[4.63,43.68],[4.81,43.39]]}},
    {"type":"Feature","properties":{"system_id":"saone","name":"Saône","country":"FR","cemt_class":"Va","max_barge_tonnage":2500,"native_class":"CEMT Va","notes":"Chalon to Lyon Rhône confluence."},
      "geometry":{"type":"LineString","coordinates":[[4.85,46.78],[4.83,46.20],[4.83,45.76]]}},
    {"type":"Feature","properties":{"system_id":"elbe","name":"Elbe","country":"DE","cemt_class":"IV","max_barge_tonnage":1350,"native_class":"CEMT IV (draft-limited)","notes":"Hamburg to Czech border; navigability seasonal."},
      "geometry":{"type":"LineString","coordinates":[[9.99,53.55],[11.63,52.13],[12.30,51.33],[13.74,51.05],[14.04,50.78],[14.49,50.36]]}},
    {"type":"Feature","properties":{"system_id":"mittellandkanal","name":"Mittellandkanal","country":"DE","cemt_class":"Vb","max_barge_tonnage":3000,"native_class":"CEMT Vb","notes":"Rhine-Elbe-Oder canal link across Germany."},
      "geometry":{"type":"LineString","coordinates":[[6.78,52.27],[8.05,52.27],[10.52,52.27],[12.33,52.40]]}},
    {"type":"Feature","properties":{"system_id":"oder","name":"Oder","country":"PL","cemt_class":"III","max_barge_tonnage":700,"native_class":"CEMT III","notes":"Wrocław to Szczecin; modernisation under EU programme."},
      "geometry":{"type":"LineString","coordinates":[[17.04,51.11],[15.50,52.28],[14.55,52.93],[14.53,53.43]]}},
    {"type":"Feature","properties":{"system_id":"seine","name":"Seine (Le Havre to Paris)","country":"FR","cemt_class":"Vb","max_barge_tonnage":4500,"native_class":"CEMT Vb","notes":"Le Havre estuary to Paris; bulk aggregates and grain."},
      "geometry":{"type":"LineString","coordinates":[[0.10,49.49],[0.83,49.42],[1.90,49.43],[2.95,49.05],[2.27,48.86]]}},
    {"type":"Feature","properties":{"system_id":"yangtze_lower","name":"Yangtze (Wuhan to Shanghai)","country":"CN","cemt_class":"VIc","max_barge_tonnage":18000,"native_class":"China Class I (sea-river vessel)","notes":"Largest cargo-tonnage river worldwide; ore, coal, container, ag. Trace passes Huangshi, Jiujiang, Anqing, Tongling, Wuhu, Nanjing, Zhenjiang, Nantong."},
      "geometry":{"type":"LineString","coordinates":[[114.30,30.59],[115.10,30.20],[115.96,29.71],[116.00,29.80],[116.95,30.50],[117.30,30.65],[117.85,30.95],[118.40,31.32],[118.78,32.06],[119.45,32.20],[120.32,31.79],[120.85,31.95],[121.06,31.58],[121.47,31.23]]}},
    {"type":"Feature","properties":{"system_id":"yangtze_middle","name":"Yangtze (Chongqing to Wuhan)","country":"CN","cemt_class":"VIa","max_barge_tonnage":6000,"native_class":"China Class II/III","notes":"Three Gorges Dam ship-lift constrains; mid-stream. Trace passes Fuling, Wanzhou, Yichang (Three Gorges), Yueyang."},
      "geometry":{"type":"LineString","coordinates":[[106.55,29.56],[107.40,29.75],[108.40,30.83],[108.69,30.83],[110.20,30.99],[111.29,30.69],[111.95,30.42],[112.20,30.50],[112.97,29.36],[113.13,29.55],[114.00,30.55],[114.30,30.59]]}},
    {"type":"Feature","properties":{"system_id":"pearl","name":"Pearl River (Xi Jiang)","country":"CN","cemt_class":"Vb","max_barge_tonnage":4000,"native_class":"China Class III","notes":"Wuzhou-Guangzhou-Hong Kong; bulk and container feeder."},
      "geometry":{"type":"LineString","coordinates":[[108.37,22.82],[111.32,23.48],[112.46,23.09],[113.27,23.13],[113.85,22.50],[114.18,22.30]]}},
    {"type":"Feature","properties":{"system_id":"grand_canal_south","name":"Grand Canal (Hangzhou to Huai'an)","country":"CN","cemt_class":"IV","max_barge_tonnage":1500,"native_class":"China Class IV","notes":"Active southern bulk-freight section; coal/aggregates."},
      "geometry":{"type":"LineString","coordinates":[[120.16,30.27],[120.62,31.30],[120.30,31.57],[119.42,32.39],[119.02,33.59]]}},
    {"type":"Feature","properties":{"system_id":"volga_main","name":"Volga (Moscow Canal to Astrakhan)","country":"RU","cemt_class":"VIa","max_barge_tonnage":5000,"native_class":"UVVP M (super-large)","notes":"Volga-Don-max vessel ~5000 t; oil, grain, fertiliser. Trace passes Tver, Rybinsk, Yaroslavl, Kostroma, Nizhny Novgorod, Cheboksary, Kazan, Ulyanovsk, Samara, Saratov, Volgograd."},
      "geometry":{"type":"LineString","coordinates":[[37.62,55.75],[36.93,56.50],[37.45,56.74],[38.85,58.05],[39.87,57.62],[40.93,57.78],[42.10,57.20],[43.99,56.33],[47.20,56.13],[49.12,55.79],[48.40,54.32],[50.10,53.20],[49.42,52.50],[48.50,51.65],[46.04,51.53],[45.17,49.10],[44.52,48.71],[46.78,47.40],[48.04,46.34]]}},
    {"type":"Feature","properties":{"system_id":"volga_don_canal","name":"Volga-Don Canal","country":"RU","cemt_class":"Va","max_barge_tonnage":3000,"native_class":"UVVP O","notes":"Volgograd to Kalach; thirteen locks; Caspian-Azov-Black-Sea link."},
      "geometry":{"type":"LineString","coordinates":[[44.52,48.71],[43.62,48.78],[43.00,48.70],[42.40,48.55]]}},
    {"type":"Feature","properties":{"system_id":"don","name":"Don","country":"RU","cemt_class":"Va","max_barge_tonnage":3000,"native_class":"UVVP O","notes":"Volga-Don canal exit to Sea of Azov."},
      "geometry":{"type":"LineString","coordinates":[[42.40,48.55],[40.35,47.50],[39.72,47.23],[39.30,47.10]]}},
    {"type":"Feature","properties":{"system_id":"kama","name":"Kama","country":"RU","cemt_class":"IV","max_barge_tonnage":1500,"native_class":"UVVP P","notes":"Perm to Volga confluence; potash, fertiliser, oil."},
      "geometry":{"type":"LineString","coordinates":[[56.25,58.00],[55.45,57.48],[53.80,56.46],[51.88,55.78],[49.27,55.44]]}},
    {"type":"Feature","properties":{"system_id":"ob","name":"Ob","country":"RU","cemt_class":"III","max_barge_tonnage":1000,"native_class":"UVVP R","notes":"Novosibirsk to Gulf of Ob; seasonal (May-October)."},
      "geometry":{"type":"LineString","coordinates":[[82.93,55.04],[78.50,57.50],[73.40,61.25],[68.79,60.94],[66.53,66.53]]}},
    {"type":"Feature","properties":{"system_id":"irtysh","name":"Irtysh","country":"RU","cemt_class":"III","max_barge_tonnage":1000,"native_class":"UVVP R","notes":"Omsk to Ob confluence; seasonal."},
      "geometry":{"type":"LineString","coordinates":[[73.37,54.99],[71.35,56.48],[68.25,58.20],[68.79,60.94]]}},
    {"type":"Feature","properties":{"system_id":"yenisei","name":"Yenisei","country":"RU","cemt_class":"IV","max_barge_tonnage":1500,"native_class":"UVVP P","notes":"Krasnoyarsk to Dudinka; Norilsk Nickel mineral barging."},
      "geometry":{"type":"LineString","coordinates":[[92.87,56.01],[92.18,58.45],[90.30,62.12],[86.18,67.46],[86.18,69.41]]}},
    {"type":"Feature","properties":{"system_id":"amur","name":"Amur","country":"RU","cemt_class":"III","max_barge_tonnage":1000,"native_class":"UVVP R","notes":"Khabarovsk to Tatar Strait; timber, coal, aggregates."},
      "geometry":{"type":"LineString","coordinates":[[135.07,48.48],[136.40,49.72],[137.00,50.55],[140.74,53.15]]}},
    {"type":"Feature","properties":{"system_id":"parana_lower","name":"Paraná (Asunción to Río de la Plata)","country":"AR","cemt_class":"VIb","max_barge_tonnage":24000,"native_class":"Hidrovía P-P 16-barge tow","notes":"Soya, iron ore, fertiliser; Argentina + Paraguay. Trace passes Posadas, Corrientes, Resistencia, Goya, Santa Fe, Rosario."},
      "geometry":{"type":"LineString","coordinates":[[-57.63,-25.27],[-57.80,-26.62],[-58.83,-27.45],[-58.85,-28.65],[-58.85,-29.55],[-59.65,-30.95],[-60.65,-32.95],[-60.50,-33.30],[-60.30,-33.60],[-58.45,-34.30],[-58.40,-34.60]]}},
    {"type":"Feature","properties":{"system_id":"paraguay","name":"Paraguay (Cáceres to Asunción)","country":"PY","cemt_class":"VIa","max_barge_tonnage":8000,"native_class":"Hidrovía P-P upper","notes":"Bolivia/Brazil iron ore export route. Trace passes Puerto Quijarro, Puerto Suárez, Corumbá, Concepción."},
      "geometry":{"type":"LineString","coordinates":[[-57.68,-16.07],[-57.85,-17.52],[-57.65,-19.01],[-57.85,-20.45],[-57.95,-22.20],[-57.42,-23.42],[-57.55,-24.55],[-57.63,-25.27]]}},
    {"type":"Feature","properties":{"system_id":"amazon_main","name":"Amazon (Manaus to Belém)","country":"BR","cemt_class":"VIc","max_barge_tonnage":18000,"native_class":"Hidrovia do Madeira/Amazonas","notes":"Soya export corridor; iron ore (Cargill Santarém). Trace passes Itacoatiara, Parintins, Óbidos, Santarém, Almeirim, Gurupá, Belém."},
      "geometry":{"type":"LineString","coordinates":[[-60.02,-3.10],[-58.45,-3.14],[-57.05,-2.65],[-56.73,-2.61],[-55.50,-2.10],[-54.71,-2.44],[-53.50,-1.55],[-52.65,-1.50],[-52.30,-1.85],[-51.50,-1.40],[-50.50,-1.45],[-49.65,-1.45],[-48.85,-1.40],[-48.50,-1.46]]}},
    {"type":"Feature","properties":{"system_id":"madeira","name":"Madeira","country":"BR","cemt_class":"VIa","max_barge_tonnage":6000,"native_class":"Hidrovia do Madeira","notes":"Porto Velho to Itacoatiara confluence with Amazon; soya."},
      "geometry":{"type":"LineString","coordinates":[[-63.90,-8.76],[-63.10,-7.30],[-61.40,-5.60],[-58.45,-3.14]]}},
    {"type":"Feature","properties":{"system_id":"tapajos","name":"Tapajós","country":"BR","cemt_class":"Va","max_barge_tonnage":2500,"native_class":"Hidrovia Tapajós-Teles Pires","notes":"Itaituba to Santarém transhipment; soya."},
      "geometry":{"type":"LineString","coordinates":[[-55.98,-4.27],[-55.50,-3.50],[-54.71,-2.44]]}},
    {"type":"Feature","properties":{"system_id":"orinoco","name":"Orinoco","country":"VE","cemt_class":"VIa","max_barge_tonnage":7000,"native_class":"INC Venezuelan inland","notes":"Iron ore Ciudad Guayana to Atlantic."},
      "geometry":{"type":"LineString","coordinates":[[-62.65,8.36],[-62.30,8.10],[-61.05,8.55],[-60.25,9.25]]}},
    {"type":"Feature","properties":{"system_id":"mekong","name":"Mekong (Vientiane to mouth)","country":"VN","cemt_class":"III","max_barge_tonnage":1000,"native_class":"MRC class III/IV mix","notes":"Cambodia and Vietnam Delta segments are most freight-active."},
      "geometry":{"type":"LineString","coordinates":[[102.60,17.97],[103.85,15.12],[104.92,11.55],[105.46,12.00],[106.36,10.36]]}},
    {"type":"Feature","properties":{"system_id":"ganga_nw1","name":"Ganga National Waterway 1","country":"IN","cemt_class":"III","max_barge_tonnage":1500,"native_class":"IWAI NW-1","notes":"Allahabad-Haldia; under Jal Marg Vikas Project deepening."},
      "geometry":{"type":"LineString","coordinates":[[81.85,25.43],[83.00,25.32],[84.20,25.45],[85.13,25.59],[86.50,25.20],[87.92,24.80],[88.10,22.06]]}},
    {"type":"Feature","properties":{"system_id":"brahmaputra_nw2","name":"Brahmaputra NW-2 + Bangladesh segment","country":"IN","cemt_class":"III","max_barge_tonnage":1000,"native_class":"IWAI NW-2 / BIWTA","notes":"Dibrugarh to Bay of Bengal via Bangladesh."},
      "geometry":{"type":"LineString","coordinates":[[94.91,27.48],[91.74,26.14],[89.87,25.18],[89.65,23.83],[89.60,22.49]]}},
    {"type":"Feature","properties":{"system_id":"mahanadi","name":"Mahanadi","country":"IN","cemt_class":"II","max_barge_tonnage":600,"native_class":"IWAI NW-5 segment","notes":"Sambalpur to Paradip; mostly potential, limited active bulk."},
      "geometry":{"type":"LineString","coordinates":[[83.97,21.47],[84.70,20.95],[85.88,20.46],[86.61,20.32]]}},
    {"type":"Feature","properties":{"system_id":"nile_lower","name":"Nile (Aswan to Mediterranean)","country":"EG","cemt_class":"III","max_barge_tonnage":1000,"native_class":"GAFI Class III","notes":"Cement, fertiliser; modest bulk."},
      "geometry":{"type":"LineString","coordinates":[[32.90,24.09],[32.55,26.30],[31.20,27.18],[30.75,29.30],[30.96,31.08],[30.05,31.45]]}},
    {"type":"Feature","properties":{"system_id":"congo","name":"Congo (Kinshasa to Kisangani)","country":"CD","cemt_class":"III","max_barge_tonnage":900,"native_class":"RVF Class III","notes":"Long but informal; low volumes; encoded for completeness."},
      "geometry":{"type":"LineString","coordinates":[[15.31,-4.32],[18.27,-1.62],[20.85,1.50],[24.50,0.50],[25.20,0.51]]}}
  ]
}
